STARLINK-33770          
1 63906U 25095S   25273.51133030  .00060476  00000+0  21934-2 0  9993
2 63906  43.0035   0.5554 0000293 145.9623 214.1247 15.27516937 23286
STARLINK-34106          
1 63907U 25095T   25273.96517646  .00060974  00000+0  22100-2 0  9991
2 63907  43.0039 357.9412 0000987 250.1162 109.9584 15.27535236 23356
STARLINK-34083          
1 63908U 25095U   25273.94734521  .00079508  00000+0  28696-2 0  9992
2 63908  43.0014 358.6760 0000363 278.8779  81.2031 15.27559281 23347
STARLINK-34066          
1 63909U 25095V   25274.26014209  .00046508  00000+0  16887-2 0  9996
2 63909  43.0008 356.7211 0000583 283.1107  76.9680 15.27586125 23392
STARLINK-34071          
1 63910U 25095W   25274.26658336  .00098517  00000+0  35362-2 0  9999
2 63910  43.0015 356.7704 0001731 233.1711 126.8982 15.27633846 23394
STARLINK-34038          
1 63911U 25095X   25273.92549892  .00067974  00000+0  24597-2 0  9999
2 63911  42.9993 358.5054 0000775 287.4174  72.6593 15.27543944 23348
STARLINK-34031          
1 63912U 25095Y   25274.25628787  .00054554  00000+0  19765-2 0  9999
2 63912  42.9977 356.6925 0000417 263.4423  96.6381 15.27594530 23394
STARLINK-34070          
1 63913U 25095Z   25274.24856752  .00069110  00000+0  24943-2 0  9992
2 63913  43.0004 356.6329 0001305 274.8242  85.2460 15.27621996 23397
STARLINK-34068          
1 63914U 25095AA  25274.23830681  .00065573  00000+0  23717-2 0  9992
2 63914  43.0007 356.5532 0000843 278.8754  81.2002 15.27574629 23392
STARLINK-34076          
1 63915U 25095AB  25273.52545652  .00059997  00000+0  21743-2 0  9995
2 63915  43.0020   0.6582 0000644 154.9233 205.1650 15.27546651 23283
STARLINK-33910          
1 63916U 25095AC  25273.96134078  .00042890  00000+0  15605-2 0  9994
2 63916  42.9968 357.9102 0002418  81.1530 278.9596 15.27549194 23351
STARLINK-34075          
1 63917U 25095AD  25273.64595265  .00061829  00000+0  22389-2 0  9999
2 63917  43.0045 359.8462 0001533 261.4829  98.5849 15.27560561 23304
STARLINK-34012          
1 63926U 25098A   25274.29509483  .00000399  00000+0  41209-4 0  9990
2 63926  70.0040 316.4702 0002763 254.9788 105.1066 14.98335202 22711
STARLINK-33956          
1 63927U 25098B   25274.24918001  .00007431  00000+0  62980-3 0  9998
2 63927  70.0014 316.3029 0003450 267.9132  92.1632 14.98333666 22698
STARLINK-33997          
1 63928U 25098C   25274.24084427 -.00012083  00000+0 -10069-2 0  9996
2 63928  70.0019 316.6732 0003702 266.0275  94.0461 14.98317435 22682
STARLINK-33989          
1 63929U 25098D   25274.08245662  .00006436  00000+0  54644-3 0  9990
2 63929  70.0040 316.9305 0002936 261.2473  98.8354 14.98345071 22669
