[{"OBJECT_NAME":"STARLINK-33770","OBJECT_ID":"2025-095S","EPOCH":"2025-09-30T12:16:18.937920","MEAN_MOTION":15.27516937,"ECCENTRICITY":2.938e-5,"INCLINATION":43.0035,"RA_OF_ASC_NODE":0.5554,"ARG_OF_PERICENTER":145.9623,"MEAN_ANOMALY":214.1247,"EPHEMERIS_TYPE":0,"CLASSIFICATION_TYPE":"U","NORAD_CAT_ID":63906,"ELEMENT_SET_NO":999,"REV_AT_EPOCH":2328,"BSTAR":0.0021934337,"MEAN_MOTION_DOT":0.00060476,"MEAN_MOTION_DDOT":0},{"OBJECT_NAME":"STARLINK-34106","OBJECT_ID":"2025-095T","EPOCH":"2025-09-30T23:09:51.246144","MEAN_MOTION":15.27535236,"ECCENTRICITY":9.875e-5,"INCLINATION":43.0039,"RA_OF_ASC_NODE":357.9412,"ARG_OF_PERICENTER":250.1162,"MEAN_ANOMALY":109.9584,"EPHEMERIS_TYPE":0,"CLASSIFICATION_TYPE":"U","NORAD_CAT_ID":63907,"ELEMENT_SET_NO":999,"REV_AT_EPOCH":2335,"BSTAR":0.0022100398,"MEAN_MOTION_DOT":0.00060974,"MEAN_MOTION_DDOT":0},{"OBJECT_NAME":"STARLINK-34083","OBJECT_ID":"2025-095U","EPOCH":"2025-09-30T22:44:10.626144","MEAN_MOTION":15.27559281,"ECCENTRICITY":3.637e-5,"INCLINATION":43.0014,"RA_OF_ASC_NODE":358.676,"ARG_OF_PERICENTER":278.8779,"MEAN_ANOMALY":81.2031,"EPHEMERIS_TYPE":0,"CLASSIFICATION_TYPE":"U","NORAD_CAT_ID":63908,"ELEMENT_SET_NO":999,"REV_AT_EPOCH":2334,"BSTAR":0.0028696169,"MEAN_MOTION_DOT":0.00079508,"MEAN_MOTION_DDOT":0},{"OBJECT_NAME":"STARLINK-34066","OBJECT_ID":"2025-095V","EPOCH":"2025-10-01T06:14:36.276576","MEAN_MOTION":15.27586125,"ECCENTRICITY":5.83e-5,"INCLINATION":43.0008,"RA_OF_ASC_NODE":356.7211,"ARG_OF_PERICENTER":283.1107,"MEAN_ANOMALY":76.968,"EPHEMERIS_TYPE":0,"CLASSIFICATION_TYPE":"U","NORAD_CAT_ID":63909,"ELEMENT_SET_NO":999,"REV_AT_EPOCH":2339,"BSTAR":0.0016886653,"MEAN_MOTION_DOT":0.00046508,"MEAN_MOTION_DDOT":0},{"OBJECT_NAME":"STARLINK-34071","OBJECT_ID":"2025-095W","EPOCH":"2025-10-01T06:23:52.802304","MEAN_MOTION":15.27633846,"ECCENTRICITY":0.00017313,"INCLINATION":43.0015,"RA_OF_ASC_NODE":356.7704,"ARG_OF_PERICENTER":233.1711,"MEAN_ANOMALY":126.8982,"EPHEMERIS_TYPE":0,"CLASSIFICATION_TYPE":"U","NORAD_CAT_ID":63910,"ELEMENT_SET_NO":999,"REV_AT_EPOCH":2339,"BSTAR":0.0035362035,"MEAN_MOTION_DOT":0.00098517,"MEAN_MOTION_DDOT":0},{"OBJECT_NAME":"STARLINK-34038","OBJECT_ID":"2025-095X","EPOCH":"2025-09-30T22:12:43.106688","MEAN_MOTION":15.27543944,"ECCENTRICITY":7.753e-5,"INCLINATION":42.9993,"RA_OF_ASC_NODE":358.5054,"ARG_OF_PERICENTER":287.4174,"MEAN_ANOMALY":72.6593,"EPHEMERIS_TYPE":0,"CLASSIFICATION_TYPE":"U","NORAD_CAT_ID":63911,"ELEMENT_SET_NO":999,"REV_AT_EPOCH":2334,"BSTAR":0.0024597085,"MEAN_MOTION_DOT":0.00067974,"MEAN_MOTION_DDOT":0},{"OBJECT_NAME":"STARLINK-34031","OBJECT_ID":"2025-095Y","EPOCH":"2025-10-01T06:09:03.271968","MEAN_MOTION":15.2759453,"ECCENTRICITY":4.176e-5,"INCLINATION":42.9977,"RA_OF_ASC_NODE":356.6925,"ARG_OF_PERICENTER":263.4423,"MEAN_ANOMALY":96.6381,"EPHEMERIS_TYPE":0,"CLASSIFICATION_TYPE":"U","NORAD_CAT_ID":63912,"ELEMENT_SET_NO":999,"REV_AT_EPOCH":2339,"BSTAR":0.0019765031,"MEAN_MOTION_DOT":0.00054554,"MEAN_MOTION_DDOT":0},{"OBJECT_NAME":"STARLINK-34070","OBJECT_ID":"2025-095Z","EPOCH":"2025-10-01T05:57:56.233728","MEAN_MOTION":15.27621996,"ECCENTRICITY":0.0001305,"INCLINATION":43.0004,"RA_OF_ASC_NODE":356.6329,"ARG_OF_PERICENTER":274.8242,"MEAN_ANOMALY":85.246,"EPHEMERIS_TYPE":0,"CLASSIFICATION_TYPE":"U","NORAD_CAT_ID":63913,"ELEMENT_SET_NO":999,"REV_AT_EPOCH":2339,"BSTAR":0.0024943224,"MEAN_MOTION_DOT":0.0006911,"MEAN_MOTION_DDOT":0},{"OBJECT_NAME":"STARLINK-34068","OBJECT_ID":"2025-095AA","EPOCH":"2025-10-01T05:43:09.708384","MEAN_MOTION":15.27574629,"ECCENTRICITY":8.435e-5,"INCLINATION":43.0007,"RA_OF_ASC_NODE":356.5532,"ARG_OF_PERICENTER":278.8754,"MEAN_ANOMALY":81.2002,"EPHEMERIS_TYPE":0,"CLASSIFICATION_TYPE":"U","NORAD_CAT_ID":63914,"ELEMENT_SET_NO":999,"REV_AT_EPOCH":2339,"BSTAR":0.0023716895,"MEAN_MOTION_DOT":0.00065573,"MEAN_MOTION_DDOT":0},{"OBJECT_NAME":"STARLINK-34076","OBJECT_ID":"2025-095AB","EPOCH":"2025-09-30T12:36:39.443328","MEAN_MOTION":15.27546651,"ECCENTRICITY":6.446e-5,"INCLINATION":43.002,"RA_OF_ASC_NODE":0.6582,"ARG_OF_PERICENTER":154.9233,"MEAN_ANOMALY":205.165,"EPHEMERIS_TYPE":0,"CLASSIFICATION_TYPE":"U","NORAD_CAT_ID":63915,"ELEMENT_SET_NO":999,"REV_AT_EPOCH":2328,"BSTAR":0.0021743179,"MEAN_MOTION_DOT":0.00059997,"MEAN_MOTION_DDOT":0},{"OBJECT_NAME":"STARLINK-33910","OBJECT_ID":"2025-095AC","EPOCH":"2025-09-30T23:04:19.843392","MEAN_MOTION":15.27549194,"ECCENTRICITY":0.00024182,"INCLINATION":42.9968,"RA_OF_ASC_NODE":357.9102,"ARG_OF_PERICENTER":81.153,"MEAN_ANOMALY":278.9596,"EPHEMERIS_TYPE":0,"CLASSIFICATION_TYPE":"U","NORAD_CAT_ID":63916,"ELEMENT_SET_NO":999,"REV_AT_EPOCH":2335,"BSTAR":0.0015604632,"MEAN_MOTION_DOT":0.0004289,"MEAN_MOTION_DDOT":0},{"OBJECT_NAME":"STARLINK-34075","OBJECT_ID":"2025-095AD","EPOCH":"2025-09-30T15:30:10.308960","MEAN_MOTION":15.27560561,"ECCENTRICITY":0.0001533,"INCLINATION":43.0045,"RA_OF_ASC_NODE":359.8462,"ARG_OF_PERICENTER":261.4829,"MEAN_ANOMALY":98.5849,"EPHEMERIS_TYPE":0,"CLASSIFICATION_TYPE":"U","NORAD_CAT_ID":63917,"ELEMENT_SET_NO":999,"REV_AT_EPOCH":2330,"BSTAR":0.0022389,"MEAN_MOTION_DOT":0.00061829,"MEAN_MOTION_DDOT":0},{"OBJECT_NAME":"STARLINK-34012","OBJECT_ID":"2025-098A","EPOCH":"2025-10-01T07:04:56.193312","MEAN_MOTION":14.98335202,"ECCENTRICITY":0.00027633,"INCLINATION":70.004,"RA_OF_ASC_NODE":316.4702,"ARG_OF_PERICENTER":254.9788,"MEAN_ANOMALY":105.1066,"EPHEMERIS_TYPE":0,"CLASSIFICATION_TYPE":"U","NORAD_CAT_ID":63926,"ELEMENT_SET_NO":999,"REV_AT_EPOCH":2271,"BSTAR":4.1209052e-5,"MEAN_MOTION_DOT":3.99e-6,"MEAN_MOTION_DDOT":0},{"OBJECT_NAME":"STARLINK-33956","OBJECT_ID":"2025-098B","EPOCH":"2025-10-01T05:58:49.152864","MEAN_MOTION":14.98333666,"ECCENTRICITY":0.000345,"INCLINATION":70.0014,"RA_OF_ASC_NODE":316.3029,"ARG_OF_PERICENTER":267.9132,"MEAN_ANOMALY":92.1632,"EPHEMERIS_TYPE":0,"CLASSIFICATION_TYPE":"U","NORAD_CAT_ID":63927,"ELEMENT_SET_NO":999,"REV_AT_EPOCH":2269,"BSTAR":0.00062979833,"MEAN_MOTION_DOT":7.431e-5,"MEAN_MOTION_DDOT":0},{"OBJECT_NAME":"STARLINK-33997","OBJECT_ID":"2025-098C","EPOCH":"2025-10-01T05:46:48.944928","MEAN_MOTION":14.98317435,"ECCENTRICITY":0.00037023,"INCLINATION":70.0019,"RA_OF_ASC_NODE":316.6732,"ARG_OF_PERICENTER":266.0275,"MEAN_ANOMALY":94.0461,"EPHEMERIS_TYPE":0,"CLASSIFICATION_TYPE":"U","NORAD_CAT_ID":63928,"ELEMENT_SET_NO":999,"REV_AT_EPOCH":2268,"BSTAR":-0.0010069003,"MEAN_MOTION_DOT":-0.00012083,"MEAN_MOTION_DDOT":0},{"OBJECT_NAME":"STARLINK-33989","OBJECT_ID":"2025-098D","EPOCH":"2025-10-01T01:58:44.251968","MEAN_MOTION":14.98345071,"ECCENTRICITY":0.00029364,"INCLINATION":70.004,"RA_OF_ASC_NODE":316.9305,"ARG_OF_PERICENTER":261.2473,"MEAN_ANOMALY":98.8354,"EPHEMERIS_TYPE":0,"CLASSIFICATION_TYPE":"U","NORAD_CAT_ID":63929,"ELEMENT_SET_NO":999,"REV_AT_EPOCH":2266,"BSTAR":0.00054644415,"MEAN_MOTION_DOT":6.436e-5,"MEAN_MOTION_DDOT":0}]
